      2.10          N: GNSS NAV DATA                        RINEX VERSION / TYPE
fic2rin                                 10/29/2019 00:19:28 PGM / RUN BY / DATE
                                                            END OF HEADER
13 19 10 28 10  0  0.0-3.625545650721e-05 2.273736754432e-12 0.000000000000e+00
    7.500000000000e+01-2.406250000000e+01 4.026596295327e-09 2.732381451684e+00
   -1.201406121254e-06 3.966638352722e-03 1.265853643417e-05 5.153674629211e+03
    1.224000000000e+05 3.725290298462e-08 2.762307854810e+00 4.097819328308e-08
    9.682663348308e-01 1.390937500000e+02 1.191089091402e+00-7.700320749268e-09
   -5.007351433429e-10 1.000000000000e+00 2.077000000000e+03 0.000000000000e+00
    2.400000000000e+00 0.000000000000e+00-1.117587089539e-08 7.500000000000e+01
    1.152000000000e+05 4.000000000000e+00
14 19 10 28 10  0  0.0-5.368608981371e-05 2.046363078989e-12 0.000000000000e+00
    7.000000000000e+01-1.831250000000e+01 4.102670892710e-09-2.968707901800e+00
   -9.089708328247e-07 1.074836868793e-02 1.293420791626e-05 5.153764839172e+03
    1.224000000000e+05 1.396983861923e-07 2.716857879350e+00-8.381903171539e-08
    9.608103709571e-01 1.264687500000e+02-1.932658024336e+00-7.611745631187e-09
   -5.850243686132e-10 1.000000000000e+00 2.077000000000e+03 0.000000000000e+00
    2.400000000000e+00 0.000000000000e+00-9.778887033463e-09 7.000000000000e+01
    1.152000000000e+05 4.000000000000e+00
19 19 10 28 10  0  0.0-2.476060763001e-04 5.229594535194e-12 0.000000000000e+00
    1.050000000000e+02-1.198125000000e+02 3.973736950666e-09-9.260177815004e-03
   -6.210058927536e-06 9.269634494558e-03 1.079216599464e-05 5.153656005859e+03
    1.224000000000e+05-1.601874828339e-07-4.026897764341e-01-3.725290298462e-09
    9.825012211652e-01 1.868125000000e+02 1.521194288465e+00-7.902829184557e-09
   -2.482246252663e-10 1.000000000000e+00 2.077000000000e+03 0.000000000000e+00
    2.400000000000e+00 0.000000000000e+00-1.536682248116e-08 1.050000000000e+02
    1.152000000000e+05 4.000000000000e+00
12 19 10 28 10  0  0.0 1.894612796605e-04-3.979039320257e-12 0.000000000000e+00
    5.400000000000e+01-1.418750000000e+01 4.568047420368e-09 1.452850672034e-01
   -9.275972843170e-07 7.513588527218e-03 1.387670636177e-06 5.153559637070e+03
    1.224000000000e+05-2.980232238770e-08-1.482481150239e+00 6.519258022308e-08
    9.805978462478e-01 3.667500000000e+02 1.103298030117e+00-8.566071096959e-09
   -2.964409193827e-11 1.000000000000e+00 2.077000000000e+03 0.000000000000e+00
    2.400000000000e+00 0.000000000000e+00-1.257285475731e-08 5.400000000000e+01
    1.152000000000e+05 4.000000000000e+00
31 19 10 28 10  0  0.0 6.603077054024e-07-2.614797267597e-12 0.000000000000e+00
    5.600000000000e+01 1.368750000000e+02 4.352681306648e-09 4.535278459523e-01
    7.225200533867e-06 9.495192905888e-03 9.147450327873e-06 5.153728710175e+03
    1.224000000000e+05 2.384185791016e-07-2.571039452696e+00 8.754432201385e-08
    9.592642874480e-01 1.998125000000e+02 4.918136745851e-02-8.206413258623e-09
    4.596620039104e-10 1.000000000000e+00 2.077000000000e+03 0.000000000000e+00
    2.400000000000e+00 0.000000000000e+00-1.350417733192e-08 5.600000000000e+01
    1.152000000000e+05 4.000000000000e+00
17 19 10 28 10  0  0.0 1.524253748357e-04 7.048583938740e-12 0.000000000000e+00
    9.600000000000e+01-1.352187500000e+02 3.841588589013e-09-2.747473185229e+00
   -6.893649697304e-06 1.327606162522e-02 1.041218638420e-05 5.153595001221e+03
    1.224000000000e+05 1.993030309677e-07-4.486345093252e-01 1.676380634308e-08
    9.844935180953e-01 1.868437500000e+02-1.697050402424e+00-7.542099873019e-09
   -2.317953694933e-10 1.000000000000e+00 2.077000000000e+03 0.000000000000e+00
    3.400000000000e+00 0.000000000000e+00-1.117587089539e-08 9.600000000000e+01
    1.152000000000e+05 4.000000000000e+00
32 19 10 28 10  0  0.0 1.063402742147e-04 1.261923898710e-11 0.000000000000e+00
    7.000000000000e+01-2.981250000000e+01 4.383396871789e-09-1.914480910249e+00
   -1.471489667892e-06 3.248169086874e-03 1.178309321404e-05 5.153644128799e+03
    1.224000000000e+05 2.607703208923e-08 2.630189338515e+00-6.705522537231e-08
    9.570377495380e-01 1.528125000000e+02-2.527087043067e+00-7.848898366693e-09
   -6.314548740587e-10 1.000000000000e+00 2.077000000000e+03 0.000000000000e+00
    2.400000000000e+00 0.000000000000e+00 4.656612873077e-10 7.000000000000e+01
    1.152000000000e+05 4.000000000000e+00
26 19 10 28 10  0  0.0 7.154094055295e-05 8.526512829121e-12 0.000000000000e+00
    4.200000000000e+01-2.812500000000e+00 5.303435195078e-09-7.748914374759e-01
   -1.471489667892e-07 4.091287613846e-03 3.594905138016e-07 5.153684783936e+03
    1.224000000000e+05 4.097819328308e-08-1.580199681865e+00-7.823109626770e-08
    9.491895231993e-01 3.626875000000e+02 1.186546155839e-01-8.906799575382e-09
    7.857470152314e-11 1.000000000000e+00 2.077000000000e+03 0.000000000000e+00
    2.400000000000e+00 0.000000000000e+00 7.450580596924e-09 4.200000000000e+01
    1.152000000000e+05 4.000000000000e+00
27 19 10 28 10  0  0.0-1.018145121634e-04-1.205080479849e-11 0.000000000000e+00
    9.600000000000e+01-1.333125000000e+02 3.999095149794e-09-2.668879387505e+00
   -6.999820470810e-06 7.292322581634e-03 1.107715070248e-05 5.153660202026e+03
    1.224000000000e+05-1.862645149231e-09-5.057062000531e-01-1.415610313416e-07
    9.787800827592e-01 1.750937500000e+02 5.070093513860e-01-7.789967340551e-09
   -3.289422731946e-10 1.000000000000e+00 2.077000000000e+03 0.000000000000e+00
    2.400000000000e+00 0.000000000000e+00 1.862645149231e-09 9.600000000000e+01
    1.152000000000e+05 4.000000000000e+00
30 19 10 28 10  0  0.0-7.130485028028e-05-8.299139153678e-12 0.000000000000e+00
    6.400000000000e+01 1.238437500000e+02 4.793056792911e-09 7.129227952503e-01
    6.547197699547e-06 4.155642120168e-03 9.551644325256e-06 5.153743013382e+03
    1.224000000000e+05 2.607703208923e-08-2.559860947478e+00 9.685754776001e-08
    9.401472996973e-01 1.835937500000e+02-2.902609712477e+00-8.296417007641e-09
    4.085884479203e-10 1.000000000000e+00 2.077000000000e+03 0.000000000000e+00
    2.400000000000e+00 0.000000000000e+00 3.725290298462e-09 6.400000000000e+01
    1.152000000000e+05 4.000000000000e+00
20 19 10 28 10  0  0.0 5.273194983602e-04 1.136868377216e-13 0.000000000000e+00
    8.400000000000e+01 8.437500000000e+00 5.869530203778e-09 1.020377725319e+00
    2.086162567139e-07 5.013618036173e-03 3.036111593246e-06 5.153610692978e+03
    1.224000000000e+05 9.313225746155e-08 1.463928401214e+00-5.215406417847e-08
    9.314903444489e-01 3.028125000000e+02 2.465480367736e+00-8.885370111330e-09
   -4.285892810353e-11 1.000000000000e+00 2.077000000000e+03 0.000000000000e+00
    2.400000000000e+00 0.000000000000e+00-8.381903171539e-09 8.400000000000e+01
    1.152000000000e+05 4.000000000000e+00
18 19 10 28 10  0  0.0 9.621353819966e-05 2.614797267597e-12 0.000000000000e+00
    6.800000000000e+01 2.165625000000e+01 4.628764235181e-09 1.139850902085e+00
    1.057982444763e-06 1.563803933095e-02 1.246295869350e-05 5.153671447754e+03
    1.224000000000e+05-2.998858690262e-07 4.905693940015e-01-1.117587089539e-07
    9.562362620728e-01 1.396562500000e+02 1.443332255530e+00-8.202841681281e-09
    6.075253058675e-10 1.000000000000e+00 2.077000000000e+03 0.000000000000e+00
    2.400000000000e+00 6.300000000000e+01-5.587935447693e-09 6.800000000000e+01
    1.152000000000e+05 4.000000000000e+00
 4 19 10 28 10  0  0.0-3.533903509378e-06-3.183231456205e-12 0.000000000000e+00
    8.300000000000e+01-4.434375000000e+01 4.321965741507e-09-4.654615899435e-01
   -2.233311533928e-06 3.118193708360e-04 1.207366585732e-05 5.153641063690e+03
    1.224000000000e+05 3.725290298462e-09 2.669117025381e+00-1.266598701477e-07
    9.602044902683e-01 1.490000000000e+02-4.489074752096e-01-7.902114869088e-09
   -7.175298879999e-10 1.000000000000e+00 2.077000000000e+03 0.000000000000e+00
    2.400000000000e+00 6.300000000000e+01-4.190951585770e-09 8.300000000000e+01
    1.153200000000e+05 4.000000000000e+00
16 19 10 28  9 59 44.0-8.757412433624e-05-3.637978807092e-12 0.000000000000e+00
    3.500000000000e+01-2.856250000000e+01 4.555189741937e-09-1.717322893575e+00
   -1.655891537666e-06 1.088402699679e-02 8.158385753632e-07 5.153652839661e+03
    1.223840000000e+05 6.519258022308e-08-1.463569221178e+00-1.303851604462e-07
    9.809020703028e-01 3.685312500000e+02 5.793287344300e-01-8.408207378444e-09
    7.178870457341e-11 1.000000000000e+00 2.077000000000e+03 0.000000000000e+00
    2.400000000000e+00 0.000000000000e+00-1.024454832077e-08 3.500000000000e+01
    1.197000000000e+05 4.000000000000e+00
17 19 10 28  9 59 44.0 1.524197869003e-04 7.048583938740e-12 0.000000000000e+00
    1.200000000000e+01-1.352187500000e+02 3.841588589013e-09-2.749806520548e+00
   -6.893649697304e-06 1.327605627012e-02 1.041218638420e-05 5.153594984055e+03
    1.223840000000e+05 1.993030309677e-07-4.486343937547e-01 1.676380634308e-08
    9.844935063919e-01 1.868437500000e+02-1.697050716951e+00-7.542099873019e-09
   -2.317953694933e-10 1.000000000000e+00 2.077000000000e+03 0.000000000000e+00
    2.400000000000e+00 0.000000000000e+00-1.117587089539e-08 1.200000000000e+01
    1.198200000000e+05 4.000000000000e+00
15 19 10 28  9 59 44.0-2.767196856439e-04 2.728484105319e-12 0.000000000000e+00
    3.000000000000e+00-5.371875000000e+01 5.089854870028e-09 2.717024925577e+00
   -2.892687916756e-06 1.193454815075e-02 1.045688986778e-05 5.153593229294e+03
    1.223840000000e+05-2.235174179077e-08 2.538839633913e+00-1.266598701477e-07
    9.282630257438e-01 1.598750000000e+02 8.285187738982e-01-8.179269270825e-09
   -6.618132814653e-10 1.000000000000e+00 2.077000000000e+03 0.000000000000e+00
    2.400000000000e+00 0.000000000000e+00-1.117587089539e-08 3.000000000000e+00
    1.199100000000e+05 4.000000000000e+00
